{"spkid": "50766522", "covariance": {"epoch": "2458290.5", "elements": [{"title": "eccentricity", "value": ".3688980139918216", "units": null, "sigma": 1.0561728716035e-07, "name": "e", "label": "e"}, {"label": "q", "name": "q", "sigma": 1.45726957364369e-07, "units": "au", "title": "perihelion distance", "value": ".9437213813485741"}, {"label": "tp", "units": "TDB", "value": "2458620.093720922844", "title": "time of perihelion passage", "name": "tp", "sigma": 5.13632276444491e-05}, {"title": "longitude of the ascending node", "value": "281.343118463462", "units": "deg", "name": "om", "sigma": 4.6429271887435e-05, "label": "node"}, {"label": "peri", "name": "w", "sigma": 5.75539202587762e-05, "value": "329.2954038929765", "title": "argument of perihelion", "units": "deg"}, {"label": "i", "name": "i", "sigma": 2.90296547035565e-05, "units": "deg", "title": "inclination", "value": "19.76891071687723"}], "data": [["1.11550113471118E-14", "-1.503394969667291E-14", "-1.155775918046345E-12", "8.537131631946846E-13", "-1.239017885859714E-12", "5.885632983351533E-13"], ["-1.503394969667291E-14", "2.123634610267653E-14", "1.52639751284511E-12", "-1.178871980136134E-12", "1.371585625997099E-12", "-8.681341219759817E-13"], ["-1.155775918046345E-12", "1.52639751284511E-12", "2.638181154055499E-9", "-8.936281610056223E-10", "2.046032547755604E-9", "-5.918959979429044E-10"], ["8.537131631946846E-13", "-1.178871980136134E-12", "-8.936281610056223E-10", "2.155677287997358E-9", "-2.382759416199466E-9", "1.140648580548363E-9"], ["-1.239017885859714E-12", "1.371585625997099E-12", "2.046032547755604E-9", "-2.382759416199466E-9", "3.312453737153572E-9", "-1.285705004068926E-9"], ["5.885632983351533E-13", "-8.681341219759817E-13", "-5.918959979429044E-10", "1.140648580548363E-9", "-1.285705004068926E-9", "8.427208522077187E-10"]], "labels": ["e", "q", "tp", "node", "peri", "i"]}, "elements": [{"label": "e", "value": ".368639081276417", "title": "eccentricity", "units": null, "sigma": "1.0555E-7", "name": "e"}, {"label": "a", "sigma": "5.5385E-8", "name": "a", "units": "au", "title": "semi-major axis", "value": "1.495177173401774"}, {"sigma": "1.455E-7", "name": "q", "units": "au", "title": "perihelion distance", "value": ".9439964338534742", "label": "q"}, {"label": "i", "value": "19.77491494760351", "title": "inclination; angle with respect to x-y ecliptic plane", "units": "deg", "sigma": "2.9039E-5", "name": "i"}, {"label": "node", "sigma": "4.6434E-5", "name": "om", "value": "281.297455491509", "title": "longitude of the ascending node", "units": "deg"}, {"label": "peri", "units": "deg", "title": "argument of perihelion", "value": "329.382712215179", "sigma": "5.7605E-5", "name": "w"}, {"name": "ma", "sigma": "7.8714E-5", "title": "mean anomaly", "value": "311.0684182685846", "units": "deg", "label": "M"}, {"value": "2461291.266202982671", "title": "time of perihelion passage", "units": "TDB", "name": "tp", "sigma": ".00015075", "label": "tp"}, {"label": "period", "units": "d", "value": "667.7861601351606", "title": "sidereal orbital period", "sigma": "3.7105E-5", "name": "per"}, {"title": "mean motion", "value": ".5390947304555332", "units": "deg/d", "sigma": "2.9954E-8", "name": "n", "label": "n"}, {"label": "Q", "value": "2.046357912950075", "title": "aphelion distance", "units": "au", "sigma": "7.5802E-8", "name": "ad"}], "epoch": "2461200.5"}